41925,IRIDIUM 112,2017,100.4,860.0,+,86.4,Active,1,LEO,USA,USA,Commercial/Government,Communications,Falcon,1 41925U 17003J   24104.40035131  .00000422  00000+0  14346-3 0  9998,2 41925  86.3959  60.4423 0002286  92.5901 267.5556 14.34218379379351,14.34218379,0.0002286,LEO
41926,IRIDIUM 111,2017,100.4,860.0,+,86.4,Active,1,LEO,USA,USA,Commercial/Government,Communications,Falcon,1 41926U 17003K   24104.38766573  .00000057  00000+0  13208-4 0  9998,2 41926  86.3962  60.5007 0002537  88.7873 271.3613 14.34216855379331,14.34216855,0.0002537,LEO
42803,IRIDIUM 113,2017,100.4,860.0,+,86.39,Active,1,LEO,USA,USA,Commercial/Government,Communications,Falcon,1 42803U 17039A   24104.57694951  .00000150  00000+0  46569-4 0  9993,2 42803  86.3920 294.2126 0002282  93.0678 267.0779 14.34219233357296,14.34219233,0.0002282,LEO
42804,IRIDIUM 123,2017,100.4,860.0,+,86.4,Active,1,LEO,USA,USA,Commercial/Government,Communications,Falcon,1 42804U 17039B   24104.61840909  .00000077  00000+0  20531-4 0  9994,2 42804  86.3965 325.7096 0002374  88.7510 271.3958 14.34215957356060,14.34215957,0.0002374,LEO
42805,IRIDIUM 120,2017,100.4,860.0,+,86.39,Active,1,LEO,USA,USA,Commercial/Government,Communications,Falcon,1 42805U 17039C   24104.57060585  .00000128  00000+0  38806-4 0  9995,2 42805  86.3908 294.1006 0002124  88.1857 271.9582 14.34220078357283,14.34220078,0.0002124,LEO
42806,IRIDIUM 115,2017,99.77,860.0,+,86.44,Active,1,LEO,USA,USA,Commercial/Government,Communications,Falcon,1 42806U 17039D   24104.58714467  .00000177  00000+0  46616-4 0  9994,2 42806  86.4445 294.1087 0002312  94.2405 265.9060 14.43276498359650,14.43276498,0.0002312,LEO
42807,IRIDIUM 118,2017,100.4,860.0,+,86.4,Active,1,LEO,USA,USA,Commercial/Government,Communications,Falcon,1 42807U 17039E   24104.58035693  .00000326  00000+0  10924-3 0  9990,2 42807  86.3963 325.7270 0002062  87.7793 272.3638 14.34217676356056,14.34217676,0.0002062,LEO
42808,IRIDIUM 117,2017,100.4,860.0,+,86.4,Active,1,LEO,USA,USA,Commercial/Government,Communications,Falcon,1 42808U 17039F   24104.59938613  .00000031  00000+0  40825-5 0  9994,2 42808  86.3961 325.6837 0002265  86.7497 273.3958 14.34217604356088,14.34217604,0.0002265,LEO
